start=new Date('2022-12-20T00:00:00.000Z').valueOf();
sats=[{"LAUNCH_DATE":"2022-07-17","RA_OF_ASC_NODE":"42.6710","MEAN_MOTION_DDOT":"0.0000000000000","REF_FRAME":"TEME","CENTER_NAME":"EARTH","REV_AT_EPOCH":"2447","TIME_SYSTEM":"UTC","COUNTRY_CODE":"US","MEAN_ANOMALY":"325.1308","TLE_LINE2":"2 53152  53.2183  42.6710 0002340  34.9838 325.1308 15.08851089 24478","OBJECT_ID":"2022-083W","SEMIMAJOR_AXIS":"6917.846","EPHEMERIS_TYPE":"0","ECCENTRICITY":"0.00023400","DECAY_DATE":null,"CLASSIFICATION_TYPE":"U","MEAN_MOTION_DOT":"0.00002573","PERIAPSIS":"538.093","GP_ID":"220978261","FILE":"3712067","MEAN_MOTION":"15.08851089","PERIOD":"95.437","OBJECT_NAME":"STARLINK-4045","MEAN_ELEMENT_THEORY":"SGP4","RCS_SIZE":"LARGE","ELEMENT_SET_NO":"999","TLE_LINE1":"1 53152U 22083W   22353.84805286  .00002573  00000-0  17968-3 0  9998","SITE":"AFETR","INCLINATION":"53.2183","OBJECT_TYPE":"PAYLOAD","BSTAR":"0.00017968000000","NORAD_CAT_ID":"53152","APOAPSIS":"541.330","EPOCH":"2022-12-19T20:21:11.767104","ARG_OF_PERICENTER":"34.9838"},{"COUNTRY_CODE":"US","MEAN_ANOMALY":"329.7565","TLE_LINE2":"2 53153  53.2184  42.7223 0002304  30.3560 329.7565 15.08843109 23841","OBJECT_ID":"2022-083X","SEMIMAJOR_AXIS":"6917.871","EPHEMERIS_TYPE":"0","ECCENTRICITY":"0.00023040","DECAY_DATE":null,"CLASSIFICATION_TYPE":"U","MEAN_MOTION_DOT":"0.00002124","GP_ID":"220971565","PERIAPSIS":"538.142","FILE":"3711774","MEAN_MOTION":"15.08843109","LAUNCH_DATE":"2022-07-17","MEAN_MOTION_DDOT":"0.0000000000000","REF_FRAME":"TEME","RA_OF_ASC_NODE":"42.7223","CENTER_NAME":"EARTH","REV_AT_EPOCH":"2384","TIME_SYSTEM":"UTC","BSTAR":"0.00015150000000","OBJECT_TYPE":"PAYLOAD","NORAD_CAT_ID":"53153","APOAPSIS":"541.330","EPOCH":"2022-12-19T20:05:18.180672","ARG_OF_PERICENTER":"30.3560","PERIOD":"95.437","MEAN_ELEMENT_THEORY":"SGP4","OBJECT_NAME":"STARLINK-4098","RCS_SIZE":"LARGE","ELEMENT_SET_NO":"999","TLE_LINE1":"1 53153U 22083X   22353.83701598  .00002124  00000-0  15150-3 0  9992","SITE":"AFETR","INCLINATION":"53.2184"},{"RCS_SIZE":"LARGE","ELEMENT_SET_NO":"999","PERIOD":"95.438","OBJECT_NAME":"STARLINK-4077","MEAN_ELEMENT_THEORY":"SGP4","TLE_LINE1":"1 53154U 22083Y   22353.84438601  .00001655  00000-0  12205-3 0  9992","SITE":"AFETR","INCLINATION":"53.2200","OBJECT_TYPE":"PAYLOAD","BSTAR":"0.00012205000000","EPOCH":"2022-12-19T20:15:54.951264","ARG_OF_PERICENTER":"35.5768","NORAD_CAT_ID":"53154","APOAPSIS":"541.341","RA_OF_ASC_NODE":"42.6935","MEAN_MOTION_DDOT":"0.0000000000000","REF_FRAME":"TEME","LAUNCH_DATE":"2022-07-17","REV_AT_EPOCH":"2384","CENTER_NAME":"EARTH","TIME_SYSTEM":"UTC","MEAN_ANOMALY":"324.5377","COUNTRY_CODE":"US","TLE_LINE2":"2 53154  53.2200  42.6935 0002303  35.5768 324.5377 15.08839322 23842","EPHEMERIS_TYPE":"0","OBJECT_ID":"2022-083Y","SEMIMAJOR_AXIS":"6917.882","DECAY_DATE":null,"ECCENTRICITY":"0.00023030","MEAN_MOTION_DOT":"0.00001655","FILE":"3711774","GP_ID":"220970076","MEAN_MOTION":"15.08839322","PERIAPSIS":"538.154","CLASSIFICATION_TYPE":"U"},{"OBJECT_NAME":"STARLINK-4088","MEAN_ELEMENT_THEORY":"SGP4","PERIOD":"95.437","ELEMENT_SET_NO":"999","RCS_SIZE":"LARGE","TLE_LINE1":"1 53155U 22083Z   22353.56470179  .00001235  00000-0  95678-4 0  9998","SITE":"AFETR","INCLINATION":"53.2187","OBJECT_TYPE":"PAYLOAD","BSTAR":"0.00009567800000","APOAPSIS":"541.153","NORAD_CAT_ID":"53155","ARG_OF_PERICENTER":"33.2104","EPOCH":"2022-12-19T13:33:10.234656","LAUNCH_DATE":"2022-07-17","REF_FRAME":"TEME","MEAN_MOTION_DDOT":"0.0000000000000","RA_OF_ASC_NODE":"43.9443","REV_AT_EPOCH":"2444","CENTER_NAME":"EARTH","TIME_SYSTEM":"UTC","TLE_LINE2":"2 53155  53.2187  43.9443 0002050  33.2104 326.9017 15.08843574 24441","COUNTRY_CODE":"US","MEAN_ANOMALY":"326.9017","SEMIMAJOR_AXIS":"6917.869","OBJECT_ID":"2022-083Z","EPHEMERIS_TYPE":"0","ECCENTRICITY":"0.00020500","DECAY_DATE":null,"CLASSIFICATION_TYPE":"U","GP_ID":"220970289","FILE":"3711774","PERIAPSIS":"538.316","MEAN_MOTION":"15.08843574","MEAN_MOTION_DOT":"0.00001235"},{"TIME_SYSTEM":"UTC","REV_AT_EPOCH":"2380","CENTER_NAME":"EARTH","LAUNCH_DATE":"2022-07-17","MEAN_MOTION_DDOT":"0.0000000000000","REF_FRAME":"TEME","RA_OF_ASC_NODE":"43.9405","CLASSIFICATION_TYPE":"U","MEAN_MOTION_DOT":"0.00001138","FILE":"3711774","GP_ID":"220971356","PERIAPSIS":"538.273","MEAN_MOTION":"15.08841111","ECCENTRICITY":"0.00021230","DECAY_DATE":null,"OBJECT_ID":"2022-083AA","SEMIMAJOR_AXIS":"6917.877","EPHEMERIS_TYPE":"0","COUNTRY_CODE":"US","MEAN_ANOMALY":"323.3036","TLE_LINE2":"2 53156  53.2186  43.9405 0002123  36.8102 323.3036 15.08841111 23803","INCLINATION":"53.2186","TLE_LINE1":"1 53156U 22083AA  22353.56565432  .00001138  00000-0  89618-4 0  9995","SITE":"AFETR","PERIOD":"95.437","MEAN_ELEMENT_THEORY":"SGP4","OBJECT_NAME":"STARLINK-4087","RCS_SIZE":"LARGE","ELEMENT_SET_NO":"999","APOAPSIS":"541.211","NORAD_CAT_ID":"53156","EPOCH":"2022-12-19T13:34:32.533248","ARG_OF_PERICENTER":"36.8102","BSTAR":"0.00008961800000","OBJECT_TYPE":"PAYLOAD"},{"MEAN_MOTION_DOT":"0.00005566","GP_ID":"220971143","FILE":"3711774","PERIAPSIS":"537.663","MEAN_MOTION":"15.08859882","CLASSIFICATION_TYPE":"U","DECAY_DATE":null,"ECCENTRICITY":"0.00029230","EPHEMERIS_TYPE":"0","OBJECT_ID":"2022-083AB","SEMIMAJOR_AXIS":"6917.820","COUNTRY_CODE":"US","MEAN_ANOMALY":"326.0422","TLE_LINE2":"2 53157  53.2209  42.7883 0002923  34.0758 326.0422 15.08859882 23849","TIME_SYSTEM":"UTC","CENTER_NAME":"EARTH","REV_AT_EPOCH":"2384","RA_OF_ASC_NODE":"42.7883","MEAN_MOTION_DDOT":"0.0000000000000","REF_FRAME":"TEME","LAUNCH_DATE":"2022-07-17","EPOCH":"2022-12-19T19:44:07.927008","ARG_OF_PERICENTER":"34.0758","NORAD_CAT_ID":"53157","APOAPSIS":"541.707","OBJECT_TYPE":"PAYLOAD","BSTAR":"0.00036737000000","INCLINATION":"53.2209","TLE_LINE1":"1 53157U 22083AB  22353.82231397  .00005566  00000-0  36737-3 0  9997","SITE":"AFETR","RCS_SIZE":"LARGE","ELEMENT_SET_NO":"999","PERIOD":"95.436","OBJECT_NAME":"STARLINK-4093","MEAN_ELEMENT_THEORY":"SGP4"},{"NORAD_CAT_ID":"53158","APOAPSIS":"540.987","EPOCH":"2022-12-19T20:00:01.682784","ARG_OF_PERICENTER":"51.0841","OBJECT_TYPE":"PAYLOAD","BSTAR":"0.00005832400000","PERIOD":"95.438","MEAN_ELEMENT_THEORY":"SGP4","OBJECT_NAME":"STARLINK-4054","RCS_SIZE":"LARGE","ELEMENT_SET_NO":"999","INCLINATION":"53.2179","TLE_LINE1":"1 53158U 22083AC  22353.83335281  .00000640  00000-0  58324-4 0  9991","SITE":"AFETR","OBJECT_ID":"2022-083AC","SEMIMAJOR_AXIS":"6917.895","EPHEMERIS_TYPE":"0","MEAN_ANOMALY":"309.0309","COUNTRY_CODE":"US","TLE_LINE2":"2 53158  53.2179  42.7384 0001774  51.0841 309.0309 15.08835199 23847","CLASSIFICATION_TYPE":"U","MEAN_MOTION_DOT":"0.00000640","MEAN_MOTION":"15.08835199","GP_ID":"220970507","FILE":"3711774","PERIAPSIS":"538.533","ECCENTRICITY":"0.00017740","DECAY_DATE":null,"CENTER_NAME":"EARTH","REV_AT_EPOCH":"2384","LAUNCH_DATE":"2022-07-17","RA_OF_ASC_NODE":"42.7384","MEAN_MOTION_DDOT":"0.0000000000000","REF_FRAME":"TEME","TIME_SYSTEM":"UTC"},{"TIME_SYSTEM":"UTC","LAUNCH_DATE":"2022-07-17","MEAN_MOTION_DDOT":"0.0000000000000","REF_FRAME":"TEME","RA_OF_ASC_NODE":"44.6006","REV_AT_EPOCH":"2378","CENTER_NAME":"EARTH","ECCENTRICITY":"0.00025770","DECAY_DATE":null,"CLASSIFICATION_TYPE":"U","PERIAPSIS":"537.963","GP_ID":"220937515","FILE":"3711365","MEAN_MOTION":"15.08839879","MEAN_MOTION_DOT":"0.00002680","TLE_LINE2":"2 53159  53.2180  44.6006 0002577  28.2322 331.8810 15.08839879 23786","MEAN_ANOMALY":"331.8810","COUNTRY_CODE":"US","SEMIMAJOR_AXIS":"6917.881","OBJECT_ID":"2022-083AD","EPHEMERIS_TYPE":"0","SITE":"AFETR","TLE_LINE1":"1 53159U 22083AD  22353.41751594  .00002680  00000-0  18646-3 0  9993","INCLINATION":"53.2180","OBJECT_NAME":"STARLINK-4111","MEAN_ELEMENT_THEORY":"SGP4","PERIOD":"95.438","ELEMENT_SET_NO":"999","RCS_SIZE":"LARGE","BSTAR":"0.00018646000000","OBJECT_TYPE":"PAYLOAD","NORAD_CAT_ID":"53159","APOAPSIS":"541.528","ARG_OF_PERICENTER":"28.2322","EPOCH":"2022-12-19T10:01:13.377216"},{"INCLINATION":"53.2181","TLE_LINE1":"1 53160U 22083AE  22353.56102475  .00003795  00000-0  25641-3 0  9990","SITE":"AFETR","PERIOD":"95.437","OBJECT_NAME":"STARLINK-4096","MEAN_ELEMENT_THEORY":"SGP4","RCS_SIZE":"LARGE","ELEMENT_SET_NO":"999","APOAPSIS":"541.268","NORAD_CAT_ID":"53160","EPOCH":"2022-12-19T13:27:52.538400","ARG_OF_PERICENTER":"39.5607","OBJECT_TYPE":"PAYLOAD","BSTAR":"0.00025641000000","TIME_SYSTEM":"UTC","CENTER_NAME":"EARTH","REV_AT_EPOCH":"2380","LAUNCH_DATE":"2022-07-17","REF_FRAME":"TEME","MEAN_MOTION_DDOT":"0.0000000000000","RA_OF_ASC_NODE":"43.9607","CLASSIFICATION_TYPE":"U","MEAN_MOTION_DOT":"0.00003795","GP_ID":"220970935","MEAN_MOTION":"15.08842938","FILE":"3711774","PERIAPSIS":"538.205","ECCENTRICITY":"0.00022140","DECAY_DATE":null,"OBJECT_ID":"2022-083AE","SEMIMAJOR_AXIS":"6917.871","EPHEMERIS_TYPE":"0","COUNTRY_CODE":"US","MEAN_ANOMALY":"320.5547","TLE_LINE2":"2 53160  53.2181  43.9607 0002214  39.5607 320.5547 15.08842938 23802"},{"OBJECT_NAME":"STARLINK-4055","MEAN_ELEMENT_THEORY":"SGP4","PERIOD":"95.437","ELEMENT_SET_NO":"999","RCS_SIZE":"LARGE","INCLINATION":"53.2192","SITE":"AFETR","TLE_LINE1":"1 53161U 22083AF  22353.60517490  .00000909  00000-0  75213-4 0  9998","APOAPSIS":"541.251","NORAD_CAT_ID":"53161","ARG_OF_PERICENTER":"38.3025","EPOCH":"2022-12-19T14:31:27.111360","OBJECT_TYPE":"PAYLOAD","BSTAR":"0.00007521300000","CENTER_NAME":"EARTH","REV_AT_EPOCH":"2381","LAUNCH_DATE":"2022-07-17","REF_FRAME":"TEME","MEAN_MOTION_DDOT":"0.0000000000000","RA_OF_ASC_NODE":"43.7761","TIME_SYSTEM":"UTC","SEMIMAJOR_AXIS":"6917.852","OBJECT_ID":"2022-083AF","EPHEMERIS_TYPE":"0","TLE_LINE2":"2 53161  53.2192  43.7761 0002218  38.3025 321.8125 15.08849278 23810","MEAN_ANOMALY":"321.8125","COUNTRY_CODE":"US","CLASSIFICATION_TYPE":"U","MEAN_MOTION":"15.08849278","GP_ID":"220971566","FILE":"3711774","PERIAPSIS":"538.183","MEAN_MOTION_DOT":"0.00000909","ECCENTRICITY":"0.00022180","DECAY_DATE":null}];
